QIANFAN-81              
1 63167U 25046J   25350.34031166  .00000149  00000+0  21208-3 0  9998
2 63167  88.9765 319.4990 0016454 107.0272 253.2684 13.51003568 47971
QIANFAN-82              
1 63168U 25046K   25350.30036859  .00000140  00000+0  19736-3 0  9993
2 63168  88.9765 319.5471 0014465 113.6327 246.6345 13.50976847 47957
QIANFAN-83              
1 63169U 25046L   25350.29877611  .00000164  00000+0  19721-3 0  9991
2 63169  88.9765 319.3166 0016026 100.7894 259.5068 13.61975640 48080
QIANFAN-84              
1 63170U 25046M   25350.32814435  .00000118  00000+0  16350-3 0  9996
2 63170  88.9764 319.6769 0017490 111.2234 249.0788 13.50987618 47880
QIANFAN-85              
1 63171U 25046N   25350.32493026  .00000153  00000+0  21781-3 0  9999
2 63171  88.9764 319.5489 0014838 112.6045 247.6677 13.50977518 47954
QIANFAN-86              
1 63172U 25046P   25350.33325805  .00000154  00000+0  21986-3 0  9998
2 63172  88.9766 319.4103 0012641 115.5991 244.6468 13.50977321 48038
QIANFAN-87              
1 63173U 25046Q   25350.30459285  .00000116  00000+0  16034-3 0  9992
2 63173  88.9762 319.5249 0013380 111.8570 248.4005 13.50975092 47963
QIANFAN-88              
1 63174U 25046R   25350.32090568  .00000135  00000+0  19006-3 0  9993
2 63174  88.9765 319.4777 0013627 119.0055 241.2463 13.50981630 47991
